YAM-10                  
1 64580U 25135BE  26204.76623424  .00001312  00000+0  13523-3 0  9990
2 64580  97.7757 318.1177 0002307 204.0669 156.0443 14.91922115 59310
YAM-11                  
1 68991U 26100M   26204.70697221  .00001180  00000+0  12614-3 0  9996
2 68991  97.7818 101.3397 0009040 332.3897  27.6840 14.90618339 12135
YAM-16                  
1 68992U 26100N   26204.64747866  .00001327  00000+0  13799-3 0  9999
2 68992  97.7326 101.3852 0004350  42.5983 317.5572 14.91533092 12137
YAM-13                  
1 68993U 26100P   26204.66339770  .00001331  00000+0  14218-3 0  9995
2 68993  97.7853 101.4012 0008889 329.8719  30.1986 14.90428426 12131
YAM-15                  
1 68997U 26100T   26204.64855432  .00001273  00000+0  13543-3 0  9990
2 68997  97.7850 101.4135 0008681 344.6433  15.4520 14.90665215 12135
YAM-12                  
1 69003U 26100Z   26204.28815765  .00003186  00000+0  33202-3 0  9993
2 69003  97.7808 100.9496 0008715 315.7841  44.2680 14.90469272 12065
YAM-14                  
1 69008U 26100AE  26204.68447353  .00001149  00000+0  12372-3 0  9998
2 69008  97.7841 101.3551 0005453  13.2482 346.8878 14.90369644 12120
