{"fetched_at":"2026-07-24T07:07:00.441Z","source":"https://celestrak.org/NORAD/elements/gp.php?NAME=YAM&FORMAT=JSON","constellation":"earthdaily-constellation","records":[{"OBJECT_NAME":"YAM-10","OBJECT_ID":"2025-135BE","EPOCH":"2026-07-23T18:23:22.638336","CLASSIFICATION_TYPE":"U","MEAN_MOTION":14.91922115,"ECCENTRICITY":0.0002307,"INCLINATION":97.7757,"RA_OF_ASC_NODE":318.1177,"ARG_OF_PERICENTER":204.0669,"MEAN_ANOMALY":156.0443,"EPHEMERIS_TYPE":0,"NORAD_CAT_ID":64580,"ELEMENT_SET_NO":999,"REV_AT_EPOCH":5931,"BSTAR":0.00013523,"MEAN_MOTION_DOT":0.00001312,"MEAN_MOTION_DDOT":0},{"OBJECT_NAME":"YAM-11","OBJECT_ID":"2026-100M","EPOCH":"2026-07-23T16:58:02.398944","CLASSIFICATION_TYPE":"U","MEAN_MOTION":14.90618339,"ECCENTRICITY":0.000904,"INCLINATION":97.7818,"RA_OF_ASC_NODE":101.3397,"ARG_OF_PERICENTER":332.3897,"MEAN_ANOMALY":27.684,"EPHEMERIS_TYPE":0,"NORAD_CAT_ID":68991,"ELEMENT_SET_NO":999,"REV_AT_EPOCH":1213,"BSTAR":0.00012614,"MEAN_MOTION_DOT":0.0000118,"MEAN_MOTION_DDOT":0},{"OBJECT_NAME":"YAM-16","OBJECT_ID":"2026-100N","EPOCH":"2026-07-23T15:32:22.156224","CLASSIFICATION_TYPE":"U","MEAN_MOTION":14.91533092,"ECCENTRICITY":0.000435,"INCLINATION":97.7326,"RA_OF_ASC_NODE":101.3852,"ARG_OF_PERICENTER":42.5983,"MEAN_ANOMALY":317.5572,"EPHEMERIS_TYPE":0,"NORAD_CAT_ID":68992,"ELEMENT_SET_NO":999,"REV_AT_EPOCH":1213,"BSTAR":0.00013799,"MEAN_MOTION_DOT":0.00001327,"MEAN_MOTION_DDOT":0},{"OBJECT_NAME":"YAM-13","OBJECT_ID":"2026-100P","EPOCH":"2026-07-23T15:55:17.561280","CLASSIFICATION_TYPE":"U","MEAN_MOTION":14.90428426,"ECCENTRICITY":0.0008889,"INCLINATION":97.7853,"RA_OF_ASC_NODE":101.4012,"ARG_OF_PERICENTER":329.8719,"MEAN_ANOMALY":30.1986,"EPHEMERIS_TYPE":0,"NORAD_CAT_ID":68993,"ELEMENT_SET_NO":999,"REV_AT_EPOCH":1213,"BSTAR":0.00014218,"MEAN_MOTION_DOT":0.00001331,"MEAN_MOTION_DDOT":0},{"OBJECT_NAME":"YAM-15","OBJECT_ID":"2026-100T","EPOCH":"2026-07-23T15:33:55.093248","CLASSIFICATION_TYPE":"U","MEAN_MOTION":14.90665215,"ECCENTRICITY":0.0008681,"INCLINATION":97.785,"RA_OF_ASC_NODE":101.4135,"ARG_OF_PERICENTER":344.6433,"MEAN_ANOMALY":15.452,"EPHEMERIS_TYPE":0,"NORAD_CAT_ID":68997,"ELEMENT_SET_NO":999,"REV_AT_EPOCH":1213,"BSTAR":0.00013543,"MEAN_MOTION_DOT":0.00001273,"MEAN_MOTION_DDOT":0},{"OBJECT_NAME":"YAM-12","OBJECT_ID":"2026-100Z","EPOCH":"2026-07-23T06:54:56.820960","CLASSIFICATION_TYPE":"U","MEAN_MOTION":14.90469272,"ECCENTRICITY":0.0008715,"INCLINATION":97.7808,"RA_OF_ASC_NODE":100.9496,"ARG_OF_PERICENTER":315.7841,"MEAN_ANOMALY":44.268,"EPHEMERIS_TYPE":0,"NORAD_CAT_ID":69003,"ELEMENT_SET_NO":999,"REV_AT_EPOCH":1206,"BSTAR":0.00033202,"MEAN_MOTION_DOT":0.00003186,"MEAN_MOTION_DDOT":0},{"OBJECT_NAME":"YAM-14","OBJECT_ID":"2026-100AE","EPOCH":"2026-07-23T16:25:38.512992","CLASSIFICATION_TYPE":"U","MEAN_MOTION":14.90369644,"ECCENTRICITY":0.0005453,"INCLINATION":97.7841,"RA_OF_ASC_NODE":101.3551,"ARG_OF_PERICENTER":13.2482,"MEAN_ANOMALY":346.8878,"EPHEMERIS_TYPE":0,"NORAD_CAT_ID":69008,"ELEMENT_SET_NO":999,"REV_AT_EPOCH":1212,"BSTAR":0.00012372,"MEAN_MOTION_DOT":0.00001149,"MEAN_MOTION_DDOT":0}]}
